NORAD_CAT_ID,OBJECT_NAME,OBJECT_TYPE,EPOCH,MEAN_MOTION,ECCENTRICITY,INCLINATION,RA_OF_ASC_NODE,ARG_OF_PERICENTER,MEAN_ANOMALY,BSTAR,MEAN_MOTION_DOT,MEAN_MOTION_DDOT,TLE_LINE0,TLE_LINE1,TLE_LINE2,SEMIMAJOR_AXIS,PERIOD,APOGEE,PERIGEE,DECAYED
51719.0,STARLINK-3540,PAYLOAD,2022-05-29 14:00:01,15.088119,0.0001599,53.2202,44.6525,60.5147,98.9877,0.00049647,7.616e-05,0.0,0 STARLINK-3540,1 51719U 22016F   22149.58334491  .00007616  00000-0  49647-3 0  9992,2 51719  53.2202  44.6525 0001599  60.5147  98.9877 15.08811900  1307,6917.965999999999,95.439,540.937,538.725,0.0
51719.0,STARLINK-3540,PAYLOAD,2022-05-29 21:14:43,15.08833537,0.0001906,53.2204,43.2966,58.0064,302.1113,-4.0581e-05,-9.34e-06,0.0,0 STARLINK-3540,1 51719U 22016F   22149.88522973 -.00000934  00000-0 -40581-4 0  9996,2 51719  53.2204  43.2966 0001906  58.0064 302.1113 15.08833537 15123,6917.9,95.438,541.0840000000002,538.447,0.0
51719.0,STARLINK-3540,PAYLOAD,2022-05-29 22:00:00,15.08815414,0.000178,53.2203,43.1577,59.3607,111.7131,-0.00089672,-0.00014522,0.0,0 STARLINK-3540,1 51719U 22016F   22149.91667824 -.00014522  00000-0 -89672-3 0  9996,2 51719  53.2203  43.1577 0001780  59.3607 111.7131 15.08815414 16192,6917.956,95.439,541.052,538.589,0.0
51719.0,STARLINK-3540,PAYLOAD,2022-05-30 14:00:01,15.08802989,0.0001729,53.2185,40.1625,62.4253,131.7973,0.0045401,0.00072639,0.0,0 STARLINK-3540,1 51719U 22016F   22150.58334491  .00072639  00000-0  45401-2 0  9994,2 51719  53.2185  40.1625 0001729  62.4253 131.7973 15.08802989 16297,6917.994000000002,95.44,541.055,538.6619999999998,0.0
51719.0,STARLINK-3540,PAYLOAD,2022-05-30 22:00:00,15.08847461,0.0001825,53.22,38.6693,58.8773,146.9277,-0.00079365,-0.000129,0.0,0 STARLINK-3540,1 51719U 22016F   22150.91667824 -.00012900  00000-0 -79365-3 0  9994,2 51719  53.2200  38.6693 0001825  58.8773 146.9277 15.08847461  1300,6917.858,95.437,540.985,538.46,0.0
51719.0,STARLINK-3540,PAYLOAD,2022-05-31 06:00:02,15.08865671,0.0001825,53.2198,37.173,55.3761,162.0834,-0.0024951,-0.00039807,0.0,0 STARLINK-3540,1 51719U 22016F   22151.25002315 -.00039807  00000-0 -24951-2 0  9995,2 51719  53.2198  37.1730 0001825  55.3761 162.0834 15.08865671 16397,6917.802,95.436,540.929,538.404,0.0
51719.0,STARLINK-3540,PAYLOAD,2022-05-31 22:00:00,15.08840114,0.0001823,53.2199,34.1805,56.9193,183.6738,-0.00062312,-0.00010192,0.0,0 STARLINK-3540,1 51719U 22016F   22151.91667824 -.00010192  00000-0 -62312-3 0  9990,2 51719  53.2199  34.1805 0001823  56.9193 183.6738 15.08840114 16490,6917.88,95.438,541.006,538.484,0.0
51719.0,STARLINK-3540,PAYLOAD,2022-06-01 14:00:01,15.08844636,0.0001684,53.2203,31.1863,60.6665,203.1232,-0.00036914,-6.159e-05,0.0,0 STARLINK-3540,1 51719U 22016F   22152.58334491 -.00006159  00000-0 -36914-3 0  9992,2 51719  53.2203  31.1863 0001684  60.6665 203.1232 15.08844636 16599,6917.866,95.437,540.896,538.566,0.0
51719.0,STARLINK-3540,PAYLOAD,2022-06-01 20:00:01,15.08846628,0.0001725,53.2205,30.0653,57.303,125.1858,-0.0019001,-0.00030407,0.0,0 STARLINK-3540,1 51719U 22016F   22152.83334491 -.00030407  00000-0 -19001-2 0  9990,2 51719  53.2205  30.0653 0001725  57.3030 125.1858 15.08846628  1304,6917.86,95.437,540.918,538.5319999999998,0.0
51719.0,STARLINK-3540,PAYLOAD,2022-06-02 15:51:42,15.08833377,0.0001582,53.2219,26.35,56.3559,303.7584,-1.917e-05,-5.93e-06,0.0,0 STARLINK-3540,1 51719U 22016F   22153.66091254 -.00000593  00000-0 -19170-4 0  9991,2 51719  53.2219  26.3500 0001582  56.3559 303.7584 15.08833377 16756,6917.901,95.438,540.86,538.6709999999998,0.0
51719.0,STARLINK-3540,PAYLOAD,2022-06-02 23:48:38,15.08842391,0.0001647,53.2212,24.8637,57.6685,302.4467,-1.6279e-05,-5.47e-06,0.0,0 STARLINK-3540,1 51719U 22016F   22153.99210835 -.00000547  00000-0 -16279-4 0  9991,2 51719  53.2212  24.8637 0001647  57.6685 302.4467 15.08842391 16807,6917.873000000001,95.437,540.877,538.599,0.0
51719.0,STARLINK-3540,PAYLOAD,2022-06-03 22:04:02,15.08836709,0.0001664,53.2214,20.7002,57.7851,302.3302,-5.4098e-05,-1.149e-05,0.0,0 STARLINK-3540,1 51719U 22016F   22154.91947113 -.00001149  00000-0 -54098-4 0  9990,2 51719  53.2214  20.7002 0001664  57.7851 302.3302 15.08836709 15885,6917.89,95.438,540.9069999999998,538.604,0.0
51719.0,STARLINK-3540,PAYLOAD,2022-06-04 01:14:48,15.08831472,0.00017,53.2214,20.1054,58.0873,302.0284,1.1912e-05,-9.9e-07,0.0,0 STARLINK-3540,1 51719U 22016F   22155.05195232 -.00000099  00000-0  11912-4 0  9993,2 51719  53.2214  20.1054 0001700  58.0873 302.0284 15.08831472 16963,6917.906,95.438,540.947,538.595,0.0
51719.0,STARLINK-3540,PAYLOAD,2022-06-04 07:36:21,15.08834893,0.0001719,53.2213,18.9166,58.6638,301.4523,3.027e-05,1.94e-06,0.0,0 STARLINK-3540,1 51719U 22016F   22155.31691051  .00000194  00000-0  30270-4 0  9995,2 51719  53.2213  18.9166 0001719  58.6638 301.4523 15.08834893 15942,6917.896,95.438,540.95,538.572,0.0
51719.0,STARLINK-3540,PAYLOAD,2022-06-05 22:00:00,15.08836733,0.0001851,53.2202,11.7367,61.5762,352.9246,-1.3296e-05,-5e-06,0.0,0 STARLINK-3540,1 51719U 22016F   22156.91667824 -.00000500  00000-0 -13296-4 0  9995,2 51719  53.2202  11.7367 0001851  61.5762 352.9246 15.08836733 17256,6917.89,95.438,541.036,538.475,0.0
51719.0,STARLINK-3540,PAYLOAD,2022-06-06 14:00:01,15.08842349,0.0001756,53.2192,8.741,69.02199999999999,8.6696,0.0013635,0.0002148,0.0,0 STARLINK-3540,1 51719U 22016F   22157.58334491  .00021480  00000-0  13635-2 0  9993,2 51719  53.2192   8.7410 0001756  69.0220   8.6696 15.08842349  1308,6917.873000000001,95.437,540.953,538.523,0.0
51719.0,STARLINK-3540,PAYLOAD,2022-06-06 22:00:00,15.08846891,0.0001811,53.22,7.2479,61.5878,27.7181,-0.0018307,-0.00029311,0.0,0 STARLINK-3540,1 51719U 22016F   22157.91667824 -.00029311  00000-0 -18307-2 0  9993,2 51719  53.2200   7.2479 0001811  61.5878  27.7181 15.08846891  1302,6917.859,95.437,540.977,538.472,0.0
51719.0,STARLINK-3540,PAYLOAD,2022-06-07 06:00:00,15.08847503,0.00017,53.2198,5.7506,61.9377,38.9585,-0.0016387,-0.00026279,0.0,0 STARLINK-3540,1 51719U 22016F   22158.25001157 -.00026279  00000-0 -16387-2 0  9998,2 51719  53.2198   5.7506 0001700  61.9377  38.9585 15.08847503 17453,6917.857,95.437,540.898,538.5459999999998,0.0
51719.0,STARLINK-3540,PAYLOAD,2022-06-07 14:00:01,15.08840571,0.0001705,53.22,4.2535,67.877,44.6116,0.0011259,0.00017676,0.0,0 STARLINK-3540,1 51719U 22016F   22158.58334491  .00017676  00000-0  11259-2 0  9996,2 51719  53.2200   4.2535 0001705  67.8770  44.6116 15.08840571  1309,6917.879,95.438,540.923,538.564,0.0
51719.0,STARLINK-3540,PAYLOAD,2022-06-07 22:00:00,15.08851338,0.0001793,53.22,2.7592,60.011,64.0857,-0.00065949,-0.00010772,0.0,0 STARLINK-3540,1 51719U 22016F   22158.91667824 -.00010772  00000-0 -65949-3 0  9990,2 51719  53.2200   2.7592 0001793  60.0110  64.0857 15.08851338 17550,6917.846,95.437,540.951,538.47,0.0
51719.0,STARLINK-3540,PAYLOAD,2022-06-08 14:00:01,15.08824726,0.0001591,53.2204,359.7649,65.2744,81.9883,0.00075096,0.00011679,0.0,0 STARLINK-3540,1 51719U 22016F   22159.58334491  .00011679  00000-0  75096-3 0  9994,2 51719  53.2204 359.7649 0001591  65.2744  81.9883 15.08824726 17657,6917.927,95.439,540.893,538.691,0.0
51719.0,STARLINK-3540,PAYLOAD,2022-06-08 22:00:01,15.08814022,0.0001726,53.2204,358.2705,57.2875,101.6215,0.0016661999999999,0.0002631,0.0,0 STARLINK-3540,1 51719U 22016F   22159.91668981  .00026310  00000-0  16662-2 0  9996,2 51719  53.2204 358.2705 0001726  57.2875 101.6215 15.08814022  1302,6917.96,95.439,541.019,538.631,0.0
51719.0,STARLINK-3540,PAYLOAD,2022-06-09 14:00:01,15.08846764,0.0001634,53.2207,355.2764,65.1517,116.8579,0.00025848,3.829e-05,0.0,0 STARLINK-3540,1 51719U 22016F   22160.58334491  .00003829  00000-0  25848-3 0  9994,2 51719  53.2207 355.2764 0001634  65.1517 116.8579 15.08846764  1305,6917.86,95.437,540.855,538.594,0.0
51719.0,STARLINK-3540,PAYLOAD,2022-06-09 22:00:00,15.08836236,0.0001715,53.2206,353.7818,56.3344,137.2854,-0.00063741,-0.00010417,0.0,0 STARLINK-3540,1 51719U 22016F   22160.91667824 -.00010417  00000-0 -63741-3 0  9997,2 51719  53.2206 353.7818 0001715  56.3344 137.2854 15.08836236  1303,6917.892,95.438,540.943,538.57,0.0
51719.0,STARLINK-3540,PAYLOAD,2022-06-10 00:00:00,15.08820846,0.0001682,53.2204,353.4078,54.7977,231.7242,0.0011667,0.00018319,0.0,0 STARLINK-3540,1 51719U 22016F   22161.00001157  .00018319  00000-0  11667-2 0  9995,2 51719  53.2204 353.4078 0001682  54.7977 231.7242 15.08820846 17862,6917.939,95.439,540.9680000000002,538.64,0.0
51719.0,STARLINK-3540,PAYLOAD,2022-06-10 14:00:01,15.08842803,0.0001548,53.2209,350.7874,63.9831,152.8034,5.7748e-05,6.31e-06,0.0,0 STARLINK-3540,1 51719U 22016F   22161.58334491  .00000631  00000-0  57748-4 0  9998,2 51719  53.2209 350.7874 0001548  63.9831 152.8034 15.08842803  1304,6917.871999999999,95.437,540.808,538.6659999999998,0.0
51719.0,STARLINK-3540,PAYLOAD,2022-06-10 22:00:00,15.08822825,0.0001667,53.2206,349.2927,55.3494,173.0409,0.0024742,0.0003929,0.0,0 STARLINK-3540,1 51719U 22016F   22161.91667824  .00039290  00000-0  24742-2 0  9993,2 51719  53.2206 349.2927 0001667  55.3494 173.0409 15.08822825 18003,6917.933000000001,95.439,540.951,538.645,0.0
51719.0,STARLINK-3540,PAYLOAD,2022-06-11 14:00:01,15.08838877,0.0001416,53.2206,346.2986,62.6915,188.8811,-0.00031809,-5.347e-05,0.0,0 STARLINK-3540,1 51719U 22016F   22162.58334491 -.00005347  00000-0 -31809-3 0  9999,2 51719  53.2206 346.2986 0001416  62.6915 188.8811 15.08838877 18102,6917.884,95.438,540.7280000000002,538.769,0.0
51719.0,STARLINK-3540,PAYLOAD,2022-06-11 22:00:00,15.08815313,0.0001551999999999,53.2203,344.8038,53.9045,209.2657,0.0027843,0.00044273,0.0,0 STARLINK-3540,1 51719U 22016F   22162.91667824  .00044273  00000-0  27843-2 0  9996,2 51719  53.2203 344.8038 0001552  53.9045 209.2657 15.08815313  1309,6917.956,95.439,540.895,538.747,0.0
